GLOBALSTAR M057 [-]     
1 25943U 99058A   23241.75971197 -.00000133  00000+0 -36751-3 0  9995
2 25943  51.9992  53.8787 0003453  97.6684 262.4557 12.24771249 86377
GLOBALSTAR M056 [-]     
1 25945U 99058C   23242.09524442 -.00000155  00000+0 -79176-3 0  9994
2 25945  51.9941 203.6168 0001052 323.3388 118.3517 12.04767902 83476
GLOBALSTAR M031 [-]     
1 25946U 99058D   23242.09366684 -.00000132  00000+0 -41895-3 0  9999
2 25946  51.9954 135.2503 0001310 308.4606 193.8744 12.15995111 84847
GLOBALSTAR M039 [-]     
1 25961U 99062A   23242.03331143 -.00000072  00000+0  17607-3 0  9993
2 25961  51.9838 110.1738 0002894 347.6635  12.4160 12.62269008 97250
GLOBALSTAR M034 [-]     
1 25962U 99062B   23241.48518454 -.00000039  00000+0  67131-3 0  9994
2 25962  51.9861 280.9861 0014100 238.3475 262.0068 11.79414501 60786
GLOBALSTAR M061 [-]     
1 25964U 99062D   23242.03999986 -.00000052  00000+0  45948-3 0  9998
2 25964  51.9787  94.8694 0005789 162.5429 352.1338 11.76749495 44100
